{
  "type": "FeatureCollection",
  "features": [
    {
      "type": "Feature",
      "properties": {
        "norad_id": 24876,
        "name": "GPS BIIR-2  (PRN 13)",
        "group": "gps-ops",
        "lat": -55.81383838158456,
        "lon": 20.635179863018795,
        "alt_km": 20395.847641866127,
        "timestamp": "2025-12-09T14:52:26.420551+00:00",
        "meta_object_name": "GPS BIIR-2  (PRN 13)",
        "meta_object_id": "1997-035A",
        "meta_epoch": "2025-12-08T17:51:24.025248",
        "meta_mean_motion": 2.00563531,
        "meta_eccentricity": 0.0096734,
        "meta_inclination": 55.8934,
        "meta_ra_of_asc_node": 106.0252,
        "meta_arg_of_pericenter": 57.0084,
        "meta_mean_anomaly": 303.8909,
        "meta_ephemeris_type": 0,
        "meta_classification_type": "U",
        "meta_norad_cat_id": 24876,
        "meta_element_set_no": 999,
        "meta_rev_at_epoch": 20813,
        "meta_bstar": 0,
        "meta_mean_motion_dot": 1.8e-07,
        "meta_mean_motion_ddot": 0,
        "tle_line1": "1 24876U 97035A   25342.74402807  .00000018  00000+0  00000+0 0  9996",
        "tle_line2": "2 24876  55.8934 106.0252 0096734  57.0084 303.8909  2.00563531208133"
      },
      "geometry": {
        "type": "Point",
        "coordinates": [
          20.635179863018795,
          -55.81383838158456
        ]
      }
    },
    {
      "type": "Feature",
      "properties": {
        "norad_id": 26360,
        "name": "GPS BIIR-4  (PRN 20)",
        "group": "gps-ops",
        "lat": 4.44926692098406,
        "lon": 30.098301873963532,
        "alt_km": 20238.781787783948,
        "timestamp": "2025-12-09T14:52:26.420578+00:00",
        "meta_object_name": "GPS BIIR-4  (PRN 20)",
        "meta_object_id": "2000-025A",
        "meta_epoch": "2025-12-09T04:14:58.003872",
        "meta_mean_motion": 2.00567914,
        "meta_eccentricity": 0.00388478,
        "meta_inclination": 55.0431,
        "meta_ra_of_asc_node": 26.982,
        "meta_arg_of_pericenter": 241.6461,
        "meta_mean_anomaly": 163.8162,
        "meta_ephemeris_type": 0,
        "meta_classification_type": "U",
        "meta_norad_cat_id": 26360,
        "meta_element_set_no": 999,
        "meta_rev_at_epoch": 18746,
        "meta_bstar": 0,
        "meta_mean_motion_dot": -9.2e-07,
        "meta_mean_motion_ddot": 0,
        "tle_line1": "1 26360U 00025A   25343.17706023 -.00000092  00000+0  00000+0 0  9997",
        "tle_line2": "2 26360  55.0431  26.9820 0038847 241.6461 163.8162  2.00567914187465"
      },
      "geometry": {
        "type": "Point",
        "coordinates": [
          30.098301873963532,
          4.44926692098406
        ]
      }
    },
    {
      "type": "Feature",
      "properties": {
        "norad_id": 26407,
        "name": "GPS BIIR-5  (PRN 22)",
        "group": "gps-ops",
        "lat": -18.837621948832126,
        "lon": 56.57875008575453,
        "alt_km": 20230.215789403843,
        "timestamp": "2025-12-09T14:52:26.420595+00:00",
        "meta_object_name": "GPS BIIR-5  (PRN 22)",
        "meta_object_id": "2000-040A",
        "meta_epoch": "2025-12-09T01:51:39.036096",
        "meta_mean_motion": 2.00567849,
        "meta_eccentricity": 0.01262118,
        "meta_inclination": 54.8916,
        "meta_ra_of_asc_node": 222.7147,
        "meta_arg_of_pericenter": 301.7415,
        "meta_mean_anomaly": 231.4474,
        "meta_ephemeris_type": 0,
        "meta_classification_type": "U",
        "meta_norad_cat_id": 26407,
        "meta_element_set_no": 999,
        "meta_rev_at_epoch": 18613,
        "meta_bstar": 0,
        "meta_mean_motion_dot": 8e-08,
        "meta_mean_motion_ddot": 0,
        "tle_line1": "1 26407U 00040A   25343.07753514  .00000008  00000+0  00000+0 0  9998",
        "tle_line2": "2 26407  54.8916 222.7147 0126211 301.7415 231.4474  2.00567849186138"
      },
      "geometry": {
        "type": "Point",
        "coordinates": [
          56.57875008575453,
          -18.837621948832126
        ]
      }
    },
    {
      "type": "Feature",
      "properties": {
        "norad_id": 27663,
        "name": "GPS BIIR-8  (PRN 16)",
        "group": "gps-ops",
        "lat": -17.160479059644768,
        "lon": -150.01108540297167,
        "alt_km": 20063.198938421367,
        "timestamp": "2025-12-09T14:52:26.420609+00:00",
        "meta_object_name": "GPS BIIR-8  (PRN 16)",
        "meta_object_id": "2003-005A",
        "meta_epoch": "2025-12-09T07:01:40.181952",
        "meta_mean_motion": 2.00571042,
        "meta_eccentricity": 0.01473164,
        "meta_inclination": 54.9241,
        "meta_ra_of_asc_node": 222.5154,
        "meta_arg_of_pericenter": 51.7525,
        "meta_mean_anomaly": 52.7373,
        "meta_ephemeris_type": 0,
        "meta_classification_type": "U",
        "meta_norad_cat_id": 27663,
        "meta_element_set_no": 999,
        "meta_rev_at_epoch": 16750,
        "meta_bstar": 0,
        "meta_mean_motion_dot": 6e-08,
        "meta_mean_motion_ddot": 0,
        "tle_line1": "1 27663U 03005A   25343.29282618  .00000006  00000+0  00000+0 0  9991",
        "tle_line2": "2 27663  54.9241 222.5154 0147316  51.7525  52.7373  2.00571042167506"
      },
      "geometry": {
        "type": "Point",
        "coordinates": [
          -150.01108540297167,
          -17.160479059644768
        ]
      }
    },
    {
      "type": "Feature",
      "properties": {
        "norad_id": 28190,
        "name": "GPS BIIR-11 (PRN 19)",
        "group": "gps-ops",
        "lat": 32.61807619713107,
        "lon": 76.71108869878165,
        "alt_km": 19925.206136314326,
        "timestamp": "2025-12-09T14:52:26.420622+00:00",
        "meta_object_name": "GPS BIIR-11 (PRN 19)",
        "meta_object_id": "2004-009A",
        "meta_epoch": "2025-12-09T02:41:41.936352",
        "meta_mean_motion": 2.00560834,
        "meta_eccentricity": 0.01083049,
        "meta_inclination": 54.989,
        "meta_ra_of_asc_node": 283.3651,
        "meta_arg_of_pericenter": 167.5856,
        "meta_mean_anomaly": 325.415,
        "meta_ephemeris_type": 0,
        "meta_classification_type": "U",
        "meta_norad_cat_id": 28190,
        "meta_element_set_no": 999,
        "meta_rev_at_epoch": 15913,
        "meta_bstar": 0,
        "meta_mean_motion_dot": -5.3e-07,
        "meta_mean_motion_ddot": 0,
        "tle_line1": "1 28190U 04009A   25343.11229093 -.00000053  00000+0  00000+0 0  9994",
        "tle_line2": "2 28190  54.9890 283.3651 0108304 167.5856 325.4150  2.00560834159136"
      },
      "geometry": {
        "type": "Point",
        "coordinates": [
          76.71108869878165,
          32.61807619713107
        ]
      }
    },
    {
      "type": "Feature",
      "properties": {
        "norad_id": 28474,
        "name": "GPS BIIR-13 (PRN 02)",
        "group": "gps-ops",
        "lat": -14.413195658441111,
        "lon": 162.79956582024013,
        "alt_km": 20342.573368705172,
        "timestamp": "2025-12-09T14:52:26.420635+00:00",
        "meta_object_name": "GPS BIIR-13 (PRN 02)",
        "meta_object_id": "2004-045A",
        "meta_epoch": "2025-12-08T20:14:45.178080",
        "meta_mean_motion": 2.0056922,
        "meta_eccentricity": 0.0170688,
        "meta_inclination": 55.2426,
        "meta_ra_of_asc_node": 332.5625,
        "meta_arg_of_pericenter": 309.0781,
        "meta_mean_anomaly": 49.896,
        "meta_ephemeris_type": 0,
        "meta_classification_type": "U",
        "meta_norad_cat_id": 28474,
        "meta_element_set_no": 999,
        "meta_rev_at_epoch": 15461,
        "meta_bstar": 0,
        "meta_mean_motion_dot": -8.3e-07,
        "meta_mean_motion_ddot": 0,
        "tle_line1": "1 28474U 04045A   25342.84357845 -.00000083  00000+0  00000+0 0  9998",
        "tle_line2": "2 28474  55.2426 332.5625 0170688 309.0781  49.8960  2.00569220154614"
      },
      "geometry": {
        "type": "Point",
        "coordinates": [
          162.79956582024013,
          -14.413195658441111
        ]
      }
    },
    {
      "type": "Feature",
      "properties": {
        "norad_id": 28874,
        "name": "GPS BIIRM-1 (PRN 17)",
        "group": "gps-ops",
        "lat": 18.528882955027257,
        "lon": 87.26570338087726,
        "alt_km": 20429.74440495609,
        "timestamp": "2025-12-09T14:52:26.420647+00:00",
        "meta_object_name": "GPS BIIRM-1 (PRN 17)",
        "meta_object_id": "2005-038A",
        "meta_epoch": "2025-12-09T01:52:55.801632",
        "meta_mean_motion": 2.0057855,
        "meta_eccentricity": 0.01317498,
        "meta_inclination": 55.0352,
        "meta_ra_of_asc_node": 280.8483,
        "meta_arg_of_pericenter": 293.4065,
        "meta_mean_anomaly": 193.8993,
        "meta_ephemeris_type": 0,
        "meta_classification_type": "U",
        "meta_norad_cat_id": 28874,
        "meta_element_set_no": 999,
        "meta_rev_at_epoch": 14802,
        "meta_bstar": 0,
        "meta_mean_motion_dot": -5e-07,
        "meta_mean_motion_ddot": 0,
        "tle_line1": "1 28874U 05038A   25343.07842363 -.00000050  00000+0  00000+0 0  9999",
        "tle_line2": "2 28874  55.0352 280.8483 0131749 293.4065 193.8993  2.00578550148027"
      },
      "geometry": {
        "type": "Point",
        "coordinates": [
          87.26570338087726,
          18.528882955027257
        ]
      }
    }
  ]
}